{
    "links": {
        "self": "http://www.neowsapp.com/rest/v1/neo/3752019?api_key=iIulBulltgU6a56xZRHN4H3l9WmuAYTsLGpBGhQ2"
    },
    "id": "3752019",
    "neo_reference_id": "3752019",
    "name": "(2016 GD222)",
    "designation": "2016 GD222",
    "nasa_jpl_url": "http://ssd.jpl.nasa.gov/sbdb.cgi?sstr=3752019",
    "absolute_magnitude_h": 25.9,
    "estimated_diameter": {
        "kilometers": {
            "estimated_diameter_min": 0.0175612318,
            "estimated_diameter_max": 0.0392681082
        },
        "meters": {
            "estimated_diameter_min": 17.561231848,
            "estimated_diameter_max": 39.2681081809
        },
        "miles": {
            "estimated_diameter_min": 0.0109120402,
            "estimated_diameter_max": 0.0244000636
        },
        "feet": {
            "estimated_diameter_min": 57.6155918963,
            "estimated_diameter_max": 128.8323800441
        }
    },
    "is_potentially_hazardous_asteroid": false,
    "close_approach_data": [
        {
            "close_approach_date": "2016-04-13",
            "close_approach_date_full": "2016-Apr-13 17:50",
            "epoch_date_close_approach": 1460569800000,
            "relative_velocity": {
                "kilometers_per_second": "8.7170489783",
                "kilometers_per_hour": "31381.376321721",
                "miles_per_hour": "19499.1668594604"
            },
            "miss_distance": {
                "astronomical": "0.0172007885",
                "lunar": "6.6911067265",
                "kilometers": "2573201.321920495",
                "miles": "1598913.158853031"
            },
            "orbiting_body": "Earth"
        },
        {
            "close_approach_date": "2024-01-24",
            "close_approach_date_full": "2024-Jan-24 13:13",
            "epoch_date_close_approach": 1706101980000,
            "relative_velocity": {
                "kilometers_per_second": "20.1563903818",
                "kilometers_per_hour": "72563.0053746244",
                "miles_per_hour": "45087.8296451381"
            },
            "miss_distance": {
                "astronomical": "0.4480093613",
                "lunar": "174.2756415457",
                "kilometers": "67021246.190540431",
                "miles": "41645071.2751867078"
            },
            "orbiting_body": "Earth"
        }
    ],
    "orbital_data": {
        "orbit_id": "8",
        "orbit_determination_date": "2017-04-06 08:26:28",
        "first_observation_date": "2016-04-15",
        "last_observation_date": "2016-04-19",
        "data_arc_in_days": 4,
        "observations_used": 47,
        "orbit_uncertainty": "7",
        "minimum_orbit_intersection": ".0169691",
        "jupiter_tisserand_invariant": "3.776",
        "epoch_osculation": "2459000.5",
        "eccentricity": ".483613798796108",
        "semi_major_axis": "1.907593809386348",
        "inclination": "8.470083929425199",
        "ascending_node_longitude": "28.85076110307839",
        "orbital_period": "962.3372205381525",
        "perihelion_distance": ".9850551206690776",
        "perihelion_argument": "150.6812257541247",
        "aphelion_distance": "2.830132498103619",
        "perihelion_time": "2459396.804679833211",
        "mean_anomaly": "211.7466832882417",
        "mean_motion": ".3740892405665064",
        "equinox": "J2000",
        "orbit_class": {
            "orbit_class_type": "APO",
            "orbit_class_description": "Near-Earth asteroid orbits which cross the Earth’s orbit similar to that of 1862 Apollo",
            "orbit_class_range": "a (semi-major axis) > 1.0 AU; q (perihelion) < 1.017 AU"
        }
    },
    "is_sentry_object": false
}